IRIDIUM 921             
1 24873U 97034E   24270.83356112  .00082850  00000+0  14783-2 0  9998
2 24873  86.3751 237.4176 0006150 130.7893 229.3901 15.49750110490865
IRIDIUM 26              
1 24903U 97043A   24270.82109672  .00001457  00000+0  48906-3 0  9997
2 24903  86.3983 221.0980 0002232  87.4283 272.7170 14.36617324418927
IRIDIUM 22              
1 24907U 97043E   24270.60724739  .00001260  00000+0  43164-3 0  9997
2 24907  86.3979 224.5025 0002423  86.6523 273.4951 14.35487060418953
DUMMY MASS 1            
1 24925U 97048A   24270.71810669  .00001304  00000+0  14447-3 0  9993
2 24925  86.3297 257.0467 0007242  21.1107 339.0415 14.86444662465989
DUMMY MASS 2            
1 24926U 97048B   24270.50197371  .00001267  00000+0  14119-3 0  9993
2 24926  86.3295 258.7086 0008486  29.6407 330.5297 14.86200079465739
IRIDIUM 29              
1 24944U 97051A   24270.71773635  .00001302  00000+0  44243-3 0  9994
2 24944  86.3909 254.3101 0002503  85.3598 274.7885 14.35932197415458
IRIDIUM 33              
1 24946U 97051C   24270.49269729  .00000858  00000+0  29744-3 0  9999
2 24946  86.3824 253.6509 0006683 203.7912 156.2976 14.34523069414939
IRIDIUM 28              
1 24948U 97051E   24270.44531105  .00001286  00000+0  42845-3 0  9999
2 24948  86.3918 252.0884 0002035  97.5721 262.5708 14.36885443415965
